{
  "type": "FeatureCollection",
  "features": [
    {
      "type": "Feature",
      "properties": {
        "norad_id": 35022,
        "name": "COSMOS 2251 DEB",
        "group": "cosmos-2251-debris",
        "lat": 65.52018219546497,
        "lon": 2.597357030778076,
        "alt_km": 685.1868846683828,
        "timestamp": "2025-12-11T20:41:15.476804+00:00",
        "meta_object_name": "COSMOS 2251 DEB",
        "meta_object_id": "1993-036AGK",
        "meta_epoch": "2025-12-08T16:45:20.077056",
        "meta_mean_motion": 14.60807192,
        "meta_eccentricity": 0.0046993,
        "meta_inclination": 74.0257,
        "meta_ra_of_asc_node": 329.6569,
        "meta_arg_of_pericenter": 170.8022,
        "meta_mean_anomaly": 189.4016,
        "meta_ephemeris_type": 0,
        "meta_classification_type": "U",
        "meta_norad_cat_id": 35022,
        "meta_element_set_no": 999,
        "meta_rev_at_epoch": 59084,
        "meta_bstar": 0.00059202,
        "meta_mean_motion_dot": 2.907e-05,
        "meta_mean_motion_ddot": 0,
        "tle_line1": "1 35022U 93036AGK 25342.69814904  .00002907  00000+0  59202-3 0  9998",
        "tle_line2": "2 35022  74.0257 329.6569 0046993 170.8022 189.4016 14.60807192590843"
      },
      "geometry": {
        "type": "Point",
        "coordinates": [
          2.597357030778076,
          65.52018219546497
        ]
      }
    },
    {
      "type": "Feature",
      "properties": {
        "norad_id": 35023,
        "name": "COSMOS 2251 DEB",
        "group": "cosmos-2251-debris",
        "lat": 39.7278252818627,
        "lon": 20.595678855285318,
        "alt_km": 600.0560545128737,
        "timestamp": "2025-12-11T20:41:15.476814+00:00",
        "meta_object_name": "COSMOS 2251 DEB",
        "meta_object_id": "1993-036AGL",
        "meta_epoch": "2025-12-11T15:23:21.006240",
        "meta_mean_motion": 14.95044721,
        "meta_eccentricity": 0.00339504,
        "meta_inclination": 74.0372,
        "meta_ra_of_asc_node": 214.8018,
        "meta_arg_of_pericenter": 292.8354,
        "meta_mean_anomaly": 97.8694,
        "meta_ephemeris_type": 0,
        "meta_classification_type": "U",
        "meta_norad_cat_id": 35023,
        "meta_element_set_no": 999,
        "meta_rev_at_epoch": 88263,
        "meta_bstar": 0.0019783157,
        "meta_mean_motion_dot": 0.0002194,
        "meta_mean_motion_ddot": 0,
        "tle_line1": "1 35023U 93036AGL 25345.64121535  .00021940  00000+0  19783-2 0  9995",
        "tle_line2": "2 35023  74.0372 214.8018 0033950 292.8354  97.8694 14.95044721882632"
      },
      "geometry": {
        "type": "Point",
        "coordinates": [
          20.595678855285318,
          39.7278252818627
        ]
      }
    },
    {
      "type": "Feature",
      "properties": {
        "norad_id": 35025,
        "name": "COSMOS 2251 DEB",
        "group": "cosmos-2251-debris",
        "lat": -69.43878912419349,
        "lon": 14.468480712340707,
        "alt_km": 624.3843324598274,
        "timestamp": "2025-12-11T20:41:15.476823+00:00",
        "meta_object_name": "COSMOS 2251 DEB",
        "meta_object_id": "1993-036AGN",
        "meta_epoch": "2025-12-10T22:12:24.909984",
        "meta_mean_motion": 14.72692917,
        "meta_eccentricity": 0.0085106,
        "meta_inclination": 73.9386,
        "meta_ra_of_asc_node": 66.4818,
        "meta_arg_of_pericenter": 339.6869,
        "meta_mean_anomaly": 20.0923,
        "meta_ephemeris_type": 0,
        "meta_classification_type": "U",
        "meta_norad_cat_id": 35025,
        "meta_element_set_no": 999,
        "meta_rev_at_epoch": 88616,
        "meta_bstar": 0.0005726,
        "meta_mean_motion_dot": 3.833e-05,
        "meta_mean_motion_ddot": 0,
        "tle_line1": "1 35025U 93036AGN 25344.92528831  .00003833  00000+0  57260-3 0  9991",
        "tle_line2": "2 35025  73.9386  66.4818 0085106 339.6869  20.0923 14.72692917886163"
      },
      "geometry": {
        "type": "Point",
        "coordinates": [
          14.468480712340707,
          -69.43878912419349
        ]
      }
    },
    {
      "type": "Feature",
      "properties": {
        "norad_id": 35026,
        "name": "COSMOS 2251 DEB",
        "group": "cosmos-2251-debris",
        "lat": -33.41825095873662,
        "lon": 151.33918271585014,
        "alt_km": 764.6159105711404,
        "timestamp": "2025-12-11T20:41:15.476833+00:00",
        "meta_object_name": "COSMOS 2251 DEB",
        "meta_object_id": "1993-036AGP",
        "meta_epoch": "2025-12-11T04:54:48.303936",
        "meta_mean_motion": 14.53621651,
        "meta_eccentricity": 0.00823008,
        "meta_inclination": 74.0466,
        "meta_ra_of_asc_node": 321.6997,
        "meta_arg_of_pericenter": 75.5866,
        "meta_mean_anomaly": 300.606,
        "meta_ephemeris_type": 0,
        "meta_classification_type": "U",
        "meta_norad_cat_id": 35026,
        "meta_element_set_no": 999,
        "meta_rev_at_epoch": 88121,
        "meta_bstar": 0.00010864271,
        "meta_mean_motion_dot": 4.45e-06,
        "meta_mean_motion_ddot": 0,
        "tle_line1": "1 35026U 93036AGP 25345.20472574  .00000445  00000+0  10864-3 0  9991",
        "tle_line2": "2 35026  74.0466 321.6997 0082300  75.5866 300.6060 14.53621651881211"
      },
      "geometry": {
        "type": "Point",
        "coordinates": [
          151.33918271585014,
          -33.41825095873662
        ]
      }
    },
    {
      "type": "Feature",
      "properties": {
        "norad_id": 35028,
        "name": "COSMOS 2251 DEB",
        "group": "cosmos-2251-debris",
        "lat": -41.454532131778976,
        "lon": -101.99789569990503,
        "alt_km": 710.0293625557615,
        "timestamp": "2025-12-11T20:41:15.476843+00:00",
        "meta_object_name": "COSMOS 2251 DEB",
        "meta_object_id": "1993-036AGR",
        "meta_epoch": "2025-12-11T13:27:35.723232",
        "meta_mean_motion": 14.56568093,
        "meta_eccentricity": 0.00824318,
        "meta_inclination": 74.0385,
        "meta_ra_of_asc_node": 273.2172,
        "meta_arg_of_pericenter": 47.2226,
        "meta_mean_anomaly": 131.7918,
        "meta_ephemeris_type": 0,
        "meta_classification_type": "U",
        "meta_norad_cat_id": 35028,
        "meta_element_set_no": 999,
        "meta_rev_at_epoch": 88268,
        "meta_bstar": 0.00018279903,
        "meta_mean_motion_dot": 8.22e-06,
        "meta_mean_motion_ddot": 0,
        "tle_line1": "1 35028U 93036AGR 25345.56083013  .00000822  00000+0  18280-3 0  9997",
        "tle_line2": "2 35028  74.0385 273.2172 0082431  47.2226 131.7918 14.56568093882681"
      },
      "geometry": {
        "type": "Point",
        "coordinates": [
          -101.99789569990503,
          -41.454532131778976
        ]
      }
    },
    {
      "type": "Feature",
      "properties": {
        "norad_id": 35031,
        "name": "COSMOS 2251 DEB",
        "group": "cosmos-2251-debris",
        "lat": -67.3352792670568,
        "lon": -142.3841062565226,
        "alt_km": 766.0397003312328,
        "timestamp": "2025-12-11T20:41:15.476853+00:00",
        "meta_object_name": "COSMOS 2251 DEB",
        "meta_object_id": "1993-036AGU",
        "meta_epoch": "2025-12-08T11:13:55.739136",
        "meta_mean_motion": 14.3828637,
        "meta_eccentricity": 0.00186752,
        "meta_inclination": 74.0383,
        "meta_ra_of_asc_node": 267.1323,
        "meta_arg_of_pericenter": 1.498,
        "meta_mean_anomaly": 358.6226,
        "meta_ephemeris_type": 0,
        "meta_classification_type": "U",
        "meta_norad_cat_id": 35031,
        "meta_element_set_no": 999,
        "meta_rev_at_epoch": 65222,
        "meta_bstar": 0.00036337037,
        "meta_mean_motion_dot": 1.081e-05,
        "meta_mean_motion_ddot": 0,
        "tle_line1": "1 35031U 93036AGU 25342.46800624  .00001081  00000+0  36337-3 0  9993",
        "tle_line2": "2 35031  74.0383 267.1323 0018675   1.4980 358.6226 14.38286370652223"
      },
      "geometry": {
        "type": "Point",
        "coordinates": [
          -142.3841062565226,
          -67.3352792670568
        ]
      }
    },
    {
      "type": "Feature",
      "properties": {
        "norad_id": 35032,
        "name": "COSMOS 2251 DEB",
        "group": "cosmos-2251-debris",
        "lat": 73.54198232287102,
        "lon": 87.70865883175752,
        "alt_km": 723.1530168404852,
        "timestamp": "2025-12-11T20:41:15.476863+00:00",
        "meta_object_name": "COSMOS 2251 DEB",
        "meta_object_id": "1993-036AGV",
        "meta_epoch": "2025-12-11T12:46:07.186368",
        "meta_mean_motion": 14.58710532,
        "meta_eccentricity": 0.00684583,
        "meta_inclination": 73.8522,
        "meta_ra_of_asc_node": 9.6037,
        "meta_arg_of_pericenter": 221.1378,
        "meta_mean_anomaly": 294.2432,
        "meta_ephemeris_type": 0,
        "meta_classification_type": "U",
        "meta_norad_cat_id": 35032,
        "meta_element_set_no": 999,
        "meta_rev_at_epoch": 87656,
        "meta_bstar": 0.0015734696,
        "meta_mean_motion_dot": 7.56e-05,
        "meta_mean_motion_ddot": 0,
        "tle_line1": "1 35032U 93036AGV 25345.53202762  .00007560  00000+0  15735-2 0  9990",
        "tle_line2": "2 35032  73.8522   9.6037 0068458 221.1378 294.2432 14.58710532876566"
      },
      "geometry": {
        "type": "Point",
        "coordinates": [
          87.70865883175752,
          73.54198232287102
        ]
      }
    }
  ]
}